{
"type": "FeatureCollection",
"name": "ohare",
"crs": { "type": "name", "properties": { "name": "urn:ogc:def:crs:OGC:1.3:CRS84" } },
"features": [
{ "type": "Feature", "properties": { "bbox_west": -87.9400876, "bbox_south": 41.9372863, "bbox_east": -87.8347934, "bbox_north": 42.0088996, "place_id": 344717769, "osm_type": "relation", "osm_id": 7745358, "lat": 41.9751638, "lon": -87.8442422, "class": "boundary", "type": "administrative", "place_rank": 20, "importance": 0.36933587834829124, "addresstype": "suburb", "name": "O'Hare", "display_name": "O'Hare, Chicago, Jefferson Township, Cook County, Illinois, 60666, United States" }, "geometry": { "type": "Polygon", "coordinates": [ [ [ -87.9400876, 42.0008044 ], [ -87.940032, 41.998131 ], [ -87.9375286, 41.9974396 ], [ -87.937433, 41.9976164 ], [ -87.9371673, 41.9980493 ], [ -87.9368936, 41.9984741 ], [ -87.9366029, 41.998878 ], [ -87.9359476, 41.9997272 ], [ -87.9357361, 41.99973 ], [ -87.9359711, 41.9994516 ], [ -87.9361716, 41.9991983 ], [ -87.9364572, 41.9988396 ], [ -87.9368172, 41.9983532 ], [ -87.9370247, 41.9980221 ], [ -87.9372474, 41.9976612 ], [ -87.9375465, 41.997132 ], [ -87.9377274, 41.9967763 ], [ -87.9378666, 41.9964829 ], [ -87.938061, 41.9959818 ], [ -87.9382497, 41.9954848 ], [ -87.9383631, 41.9951481 ], [ -87.9385466, 41.9944905 ], [ -87.9386507, 41.9939807 ], [ -87.9387086, 41.9937118 ], [ -87.9387355, 41.9935354 ], [ -87.939124, 41.9935271 ], [ -87.9398182, 41.9935152 ], [ -87.9399953, 41.9935125 ], [ -87.9399315, 41.9909609 ], [ -87.939842, 41.987523 ], [ -87.939837, 41.986932 ], [ -87.939837, 41.9869286 ], [ -87.9398361, 41.9868303 ], [ -87.939791, 41.984531 ], [ -87.9397796, 41.9830941 ], [ -87.9397732, 41.9823832 ], [ -87.9397059, 41.9760186 ], [ -87.939702, 41.975937 ], [ -87.9397297, 41.9759622 ], [ -87.9396917, 41.9733079 ], [ -87.939692, 41.973303 ], [ -87.939584, 41.96463 ], [ -87.9395972, 41.9567077 ], [ -87.9337679, 41.9558588 ], [ -87.9291117, 41.9551231 ], [ -87.926076, 41.954665 ], [ -87.926074, 41.954604 ], [ -87.925275, 41.954458 ], [ -87.923859, 41.954159 ], [ -87.923477, 41.954071 ], [ -87.922033, 41.953714 ], [ -87.9219857, 41.9538501 ], [ -87.9202024, 41.9533888 ], [ -87.916192, 41.9523535 ], [ -87.9162983, 41.9558937 ], [ -87.9166536, 41.9558917 ], [ -87.916247, 41.957567 ], [ -87.915953, 41.957482 ], [ -87.91573, 41.957408 ], [ -87.91562, 41.957368 ], [ -87.915544, 41.957136 ], [ -87.91547, 41.956909 ], [ -87.915321, 41.956441 ], [ -87.915248, 41.956209 ], [ -87.915199, 41.95597 ], [ -87.915196, 41.955954 ], [ -87.915151, 41.955673 ], [ -87.915092, 41.955256 ], [ -87.915091, 41.955248 ], [ -87.915064, 41.955007 ], [ -87.915049, 41.954884 ], [ -87.915019, 41.954393 ], [ -87.9150112, 41.9520103 ], [ -87.9123488, 41.9513568 ], [ -87.9121042, 41.9529078 ], [ -87.9088244, 41.9519593 ], [ -87.9075337, 41.9516989 ], [ -87.9059705, 41.9514326 ], [ -87.9045544, 41.9512505 ], [ -87.90345, 41.951133 ], [ -87.903412, 41.95113 ], [ -87.902361, 41.95105 ], [ -87.902082, 41.951036 ], [ -87.901938, 41.951029 ], [ -87.901935, 41.951028 ], [ -87.901495, 41.951006 ], [ -87.901349, 41.950999 ], [ -87.900511, 41.950926 ], [ -87.897999, 41.950709 ], [ -87.8965462, 41.950642 ], [ -87.896282, 41.950649 ], [ -87.894077, 41.950691 ], [ -87.893643, 41.950697 ], [ -87.892764, 41.950712 ], [ -87.8927598, 41.9517688 ], [ -87.89278, 41.952645 ], [ -87.8928022, 41.9544567 ], [ -87.8905494, 41.9569054 ], [ -87.8898564, 41.9575105 ], [ -87.8889003, 41.9579061 ], [ -87.8885, 41.957895 ], [ -87.887267, 41.95778 ], [ -87.886857, 41.957742 ], [ -87.886345, 41.957698 ], [ -87.8849626, 41.9575819 ], [ -87.884809, 41.957569 ], [ -87.884297, 41.957526 ], [ -87.884084, 41.957466 ], [ -87.884028, 41.957451 ], [ -87.883583, 41.957326 ], [ -87.883448, 41.957289 ], [ -87.883236, 41.957233 ], [ -87.8827, 41.957209 ], [ -87.881094, 41.957138 ], [ -87.8806234, 41.9571429 ], [ -87.880576, 41.957388 ], [ -87.880628, 41.958207 ], [ -87.880646, 41.95848 ], [ -87.880662, 41.958879 ], [ -87.88071, 41.960079 ], [ -87.8807497, 41.9729465 ], [ -87.8618715, 41.9733276 ], [ -87.8617429, 41.9730467 ], [ -87.8614433, 41.9726607 ], [ -87.8607665, 41.9721324 ], [ -87.8600348, 41.9716486 ], [ -87.8593578, 41.9713806 ], [ -87.8585647, 41.9713196 ], [ -87.8580001, 41.9714795 ], [ -87.8567581, 41.9720894 ], [ -87.8561548, 41.9723856 ], [ -87.8559255, 41.9724905 ], [ -87.855459, 41.9725449 ], [ -87.855121, 41.9724542 ], [ -87.8547485, 41.9722052 ], [ -87.8542935, 41.9718333 ], [ -87.8540401, 41.971343 ], [ -87.8540222, 41.9709757 ], [ -87.8541978, 41.9703691 ], [ -87.8543902, 41.9700692 ], [ -87.8546442, 41.9696735 ], [ -87.8548694, 41.9692316 ], [ -87.8550039, 41.9688829 ], [ -87.8550614, 41.9686485 ], [ -87.8550819, 41.9684419 ], [ -87.8551199, 41.9681512 ], [ -87.855023, 41.967813 ], [ -87.8549274, 41.9671656 ], [ -87.8547226, 41.9665047 ], [ -87.8549544, 41.9658096 ], [ -87.8551542, 41.965391 ], [ -87.8554424, 41.9649702 ], [ -87.8556909, 41.9646375 ], [ -87.8557864, 41.9643415 ], [ -87.8557867, 41.9641369 ], [ -87.855733, 41.9635908 ], [ -87.8556735, 41.9632584 ], [ -87.8556059, 41.9627143 ], [ -87.8556489, 41.962583 ], [ -87.8556784, 41.9624931 ], [ -87.8557514, 41.9622706 ], [ -87.856069, 41.9618813 ], [ -87.8561813, 41.9616955 ], [ -87.8564123, 41.9613132 ], [ -87.8570388, 41.9602027 ], [ -87.8576482, 41.9590156 ], [ -87.8579916, 41.9584986 ], [ -87.8585495, 41.9577965 ], [ -87.8588111, 41.9573797 ], [ -87.8588838, 41.9570512 ], [ -87.8588589, 41.9567718 ], [ -87.8587567, 41.9562611 ], [ -87.8582804, 41.9555696 ], [ -87.8582088, 41.9554522 ], [ -87.8466031, 41.9556679 ], [ -87.8466281, 41.9516554 ], [ -87.8538924, 41.9514662 ], [ -87.8539469, 41.9513454 ], [ -87.8540642, 41.9511032 ], [ -87.8544158, 41.9504263 ], [ -87.8545912, 41.9500841 ], [ -87.854789, 41.9496984 ], [ -87.8549893, 41.9492141 ], [ -87.8551353, 41.9486841 ], [ -87.8551753, 41.9482371 ], [ -87.8551588, 41.9479997 ], [ -87.8548015, 41.9471668 ], [ -87.8546286, 41.9468408 ], [ -87.8545394, 41.9466324 ], [ -87.854337, 41.9461596 ], [ -87.8538917, 41.9453114 ], [ -87.8537049, 41.9448993 ], [ -87.853573, 41.9445824 ], [ -87.8532023, 41.9436918 ], [ -87.8529649, 41.9429762 ], [ -87.8527473, 41.942399 ], [ -87.8526762, 41.9422426 ], [ -87.8524122, 41.9416625 ], [ -87.8522041, 41.9411268 ], [ -87.8521002, 41.9406524 ], [ -87.8520599, 41.9402265 ], [ -87.8519552, 41.9395756 ], [ -87.8519036, 41.9394024 ], [ -87.8519007, 41.9393927 ], [ -87.8517168, 41.9391189 ], [ -87.8515055, 41.9388465 ], [ -87.8510894, 41.9384235 ], [ -87.8507922, 41.9381998 ], [ -87.8503812, 41.9379102 ], [ -87.8499566, 41.9376008 ], [ -87.8498172, 41.9374931 ], [ -87.8496049, 41.9372863 ], [ -87.84792, 41.937324 ], [ -87.847485, 41.937332 ], [ -87.846549, 41.937351 ], [ -87.845315, 41.937375 ], [ -87.844905, 41.937384 ], [ -87.844446, 41.937395 ], [ -87.843135, 41.937414 ], [ -87.842982, 41.937417 ], [ -87.84037, 41.937472 ], [ -87.837829, 41.937525 ], [ -87.837462, 41.937533 ], [ -87.83606, 41.937559 ], [ -87.835809, 41.937563 ], [ -87.8347934, 41.9375772 ], [ -87.8350994, 41.9447922 ], [ -87.8364969, 41.9447606 ], [ -87.8365121, 41.9451418 ], [ -87.8365451, 41.946003 ], [ -87.8366236, 41.9485549 ], [ -87.8367394, 41.9501735 ], [ -87.8367288, 41.9518262 ], [ -87.836727, 41.9521003 ], [ -87.8367295, 41.953929 ], [ -87.8367259, 41.9556682 ], [ -87.836673, 41.959381 ], [ -87.8367062, 41.959885 ], [ -87.8366781, 41.9665988 ], [ -87.836771, 41.9665971 ], [ -87.8369192, 41.9665944 ], [ -87.8372607, 41.9665882 ], [ -87.8373263, 41.966587 ], [ -87.8375344, 41.9665832 ], [ -87.8379302, 41.966576 ], [ -87.8381751, 41.9665715 ], [ -87.8383878, 41.9665676 ], [ -87.8384963, 41.9665657 ], [ -87.8385929, 41.9665639 ], [ -87.838899, 41.9665583 ], [ -87.8391637, 41.9665535 ], [ -87.8395799, 41.9665459 ], [ -87.8397936, 41.966542 ], [ -87.8403969, 41.9665287 ], [ -87.8406908, 41.966523 ], [ -87.8415182, 41.9665068 ], [ -87.8416217, 41.9665048 ], [ -87.8417132, 41.966503 ], [ -87.8427498, 41.9664828 ], [ -87.8428342, 41.9664812 ], [ -87.8433704, 41.9664708 ], [ -87.8434969, 41.9664683 ], [ -87.8438094, 41.9664622 ], [ -87.8440478, 41.9664575 ], [ -87.8445881, 41.966447 ], [ -87.8447118, 41.9664446 ], [ -87.8452608, 41.9664339 ], [ -87.8458118, 41.9664231 ], [ -87.8459653, 41.9664201 ], [ -87.8459879, 41.9664197 ], [ -87.8463838, 41.966414 ], [ -87.8464881, 41.9664143 ], [ -87.8465588, 41.966415 ], [ -87.84654, 41.971903 ], [ -87.8415729, 41.9719756 ], [ -87.841583, 41.970159 ], [ -87.8367752, 41.9702314 ], [ -87.8366627, 41.9702331 ], [ -87.8366544, 41.9713725 ], [ -87.8379566, 41.9713567 ], [ -87.8379368, 41.9738384 ], [ -87.84155, 41.973788 ], [ -87.8415523, 41.9746906 ], [ -87.8366331, 41.9747747 ], [ -87.8366377, 41.9753068 ], [ -87.8366143, 41.9795702 ], [ -87.8365706, 41.9824703 ], [ -87.8365594, 41.9839834 ], [ -87.8366256, 41.9863941 ], [ -87.837867, 41.986552 ], [ -87.8404066, 41.9869416 ], [ -87.8411957, 41.9870576 ], [ -87.841946, 41.987167 ], [ -87.843204, 41.987361 ], [ -87.843946, 41.987471 ], [ -87.844998, 41.987623 ], [ -87.845053, 41.987634 ], [ -87.845762, 41.987739 ], [ -87.846529, 41.987853 ], [ -87.84713, 41.987942 ], [ -87.84736, 41.987976 ], [ -87.848382, 41.988131 ], [ -87.848935, 41.988211 ], [ -87.849537, 41.988299 ], [ -87.849649, 41.988313 ], [ -87.849987, 41.988357 ], [ -87.8501, 41.988372 ], [ -87.850702, 41.988438 ], [ -87.851257, 41.988485 ], [ -87.851327, 41.988492 ], [ -87.851768, 41.98852 ], [ -87.85273, 41.988561 ], [ -87.853168, 41.988577 ], [ -87.853425, 41.98859 ], [ -87.853858, 41.988616 ], [ -87.854132, 41.98865 ], [ -87.854607, 41.988718 ], [ -87.854732, 41.988741 ], [ -87.85483, 41.98876 ], [ -87.8552039, 41.9888458 ], [ -87.855531, 41.988953 ], [ -87.855599, 41.988975 ], [ -87.855725, 41.989016 ], [ -87.8558124, 41.989041 ], [ -87.8556814, 41.9887242 ], [ -87.8556169, 41.9885647 ], [ -87.8554951, 41.988263 ], [ -87.8555039, 41.9879142 ], [ -87.8556006, 41.9876024 ], [ -87.8557857, 41.9872 ], [ -87.8560714, 41.9865613 ], [ -87.8564895, 41.985536 ], [ -87.8566878, 41.9849952 ], [ -87.856734, 41.9848231 ], [ -87.8566541, 41.9842741 ], [ -87.85652, 41.9839591 ], [ -87.8561981, 41.9831457 ], [ -87.8560071, 41.9825338 ], [ -87.8558056, 41.9820184 ], [ -87.855726, 41.9817177 ], [ -87.8558499, 41.9810831 ], [ -87.8564209, 41.9802149 ], [ -87.8567503, 41.9799571 ], [ -87.8571033, 41.9797197 ], [ -87.8574222, 41.9794697 ], [ -87.8576994, 41.9792723 ], [ -87.8579927, 41.9789923 ], [ -87.8591073, 41.9779424 ], [ -87.8605554, 41.9766439 ], [ -87.8609979, 41.9763356 ], [ -87.8613959, 41.9759391 ], [ -87.8616996, 41.9756093 ], [ -87.8618676, 41.9752704 ], [ -87.8620155, 41.9748442 ], [ -87.8620832, 41.974499 ], [ -87.8620894, 41.9741529 ], [ -87.862051, 41.9738637 ], [ -87.8674848, 41.973737 ], [ -87.8674968, 41.9740068 ], [ -87.8678432, 41.9740012 ], [ -87.8678392, 41.9738201 ], [ -87.8685902, 41.9738095 ], [ -87.8685921, 41.9739761 ], [ -87.8758962, 41.973922 ], [ -87.875884, 41.9766078 ], [ -87.873799, 41.97673 ], [ -87.875999, 41.9830296 ], [ -87.8780239, 41.9887699 ], [ -87.878662, 41.9905977 ], [ -87.8803548, 41.9952298 ], [ -87.884532, 41.995132 ], [ -87.8845335, 41.9982212 ], [ -87.8845401, 41.9982345 ], [ -87.884564, 41.9982469 ], [ -87.8858584, 41.998547 ], [ -87.8881949, 41.9990474 ], [ -87.891225, 41.999571 ], [ -87.892298, 41.999708 ], [ -87.89258, 41.999766 ], [ -87.892867, 41.999856 ], [ -87.8970522, 42.0004544 ], [ -87.8970844, 42.0021766 ], [ -87.893082, 42.002252 ], [ -87.890131, 42.00232 ], [ -87.8899524, 42.0032401 ], [ -87.8918738, 42.0040327 ], [ -87.8941307, 42.0040489 ], [ -87.8941187, 42.005474 ], [ -87.894946, 42.005807 ], [ -87.895416, 42.00602 ], [ -87.896121, 42.006347 ], [ -87.896601, 42.00657 ], [ -87.897292, 42.006873 ], [ -87.8980177, 42.007128 ], [ -87.898609, 42.007335 ], [ -87.899307, 42.007538 ], [ -87.899973, 42.007722 ], [ -87.901106, 42.008016 ], [ -87.902303, 42.008338 ], [ -87.9043261, 42.0088996 ], [ -87.9077104, 42.0087665 ], [ -87.9076905, 42.0056511 ], [ -87.9076877, 42.005204 ], [ -87.9076874, 42.0051583 ], [ -87.9090785, 42.0051476 ], [ -87.911266, 42.005129 ], [ -87.911746, 42.005129 ], [ -87.913008, 42.0051179 ], [ -87.9130253, 42.0062567 ], [ -87.9132537, 42.0062569 ], [ -87.9132942, 42.0085962 ], [ -87.9137817, 42.0085885 ], [ -87.91378, 42.0084483 ], [ -87.9137739, 42.0081599 ], [ -87.9137263, 42.0081599 ], [ -87.9137191, 42.0073065 ], [ -87.913692, 42.0062572 ], [ -87.9136951, 42.0061267 ], [ -87.9137288, 42.0060058 ], [ -87.9137472, 42.0051416 ], [ -87.9147378, 42.005134 ], [ -87.92062, 42.0051438 ], [ -87.9206223, 42.0046885 ], [ -87.9215169, 42.0046834 ], [ -87.9230615, 42.0063633 ], [ -87.9258211, 42.007401 ], [ -87.929227, 42.004986 ], [ -87.92926, 42.004955 ], [ -87.929333, 42.004832 ], [ -87.929491, 42.004884 ], [ -87.929601, 42.004889 ], [ -87.929617, 42.004891 ], [ -87.930366, 42.004989 ], [ -87.933092, 42.005396 ], [ -87.933071, 42.005525 ], [ -87.933256, 42.00809 ], [ -87.933274, 42.008184 ], [ -87.935212, 42.008159 ], [ -87.935011, 42.00109 ], [ -87.9352556, 42.0008945 ], [ -87.9400876, 42.0008044 ] ] ] } }
]
}
